NORAD_CAT_ID,OBJECT_NAME,OBJECT_TYPE,EPOCH,MEAN_MOTION,ECCENTRICITY,INCLINATION,RA_OF_ASC_NODE,ARG_OF_PERICENTER,MEAN_ANOMALY,BSTAR,MEAN_MOTION_DOT,MEAN_MOTION_DDOT,TLE_LINE0,TLE_LINE1,TLE_LINE2,SEMIMAJOR_AXIS,PERIOD,APOGEE,PERIGEE,DECAYED
51876.0,STARLINK-3583,PAYLOAD,2022-10-06 06:13:35,15.08834136,0.0001854,53.2163,222.5082,46.0544,314.0601,-3.3034e-05,-8.14e-06,0.0,0 STARLINK-3583,1 51876U 22022AA  22279.25943451 -.00000814  00000-0 -33034-4 0  9992,2 51876  53.2163 222.5082 0001854  46.0544 314.0601 15.08834136 34349,6917.898,95.438,541.0459999999998,538.481,0.0
51876.0,STARLINK-3583,PAYLOAD,2022-10-06 20:32:03,15.08842852,0.0001754999999999,53.2166,219.8323,46.4691,313.6447,0.00023494,3.453e-05,0.0,0 STARLINK-3583,1 51876U 22022AA  22279.85559101  .00003453  00000-0  23494-3 0  9991,2 51876  53.2166 219.8323 0001755  46.4691 313.6447 15.08842852 34433,6917.871999999999,95.437,540.951,538.523,0.0
51876.0,STARLINK-3583,PAYLOAD,2022-10-07 01:18:12,15.08834215,0.0001703,53.2163,218.9426,42.3009,317.8114,9.7362e-05,1.262e-05,0.0,0 STARLINK-3583,1 51876U 22022AA  22280.05431679  .00001262  00000-0  97362-4 0  9996,2 51876  53.2163 218.9426 0001703  42.3009 317.8114 15.08834215 34469,6917.898,95.438,540.941,538.585,0.0
51876.0,STARLINK-3583,PAYLOAD,2022-10-07 06:04:22,15.08839368,0.0001657,53.2166,218.049,43.8174,316.295,0.00025208,3.726e-05,0.0,0 STARLINK-3583,1 51876U 22022AA  22280.25303463  .00003726  00000-0  25208-3 0  9993,2 51876  53.2166 218.0490 0001657  43.8174 316.2950 15.08839368 34499,6917.882,95.438,540.894,538.601,0.0
51876.0,STARLINK-3583,PAYLOAD,2022-10-07 18:47:26,15.0884581,0.0001665999999999,53.2167,215.6688,46.0053,314.1076,0.00029831,4.464e-05,0.0,0 STARLINK-3583,1 51876U 22022AA  22280.78295028  .00004464  00000-0  29831-3 0  9994,2 51876  53.2167 215.6688 0001666  46.0053 314.1076 15.08845810 34577,6917.863,95.437,540.88,538.575,0.0
51876.0,STARLINK-3583,PAYLOAD,2022-10-08 02:44:22,15.0883807,0.0001764999999999,53.2171,214.1829,54.7464,305.3693,7.5412e-05,9.12e-06,0.0,0 STARLINK-3583,1 51876U 22022AA  22281.11415453  .00000912  00000-0  75412-4 0  9999,2 51876  53.2171 214.1829 0001765  54.7464 305.3693 15.08838070 34628,6917.886,95.438,540.972,538.53,0.0
51876.0,STARLINK-3583,PAYLOAD,2022-10-08 12:16:41,15.08834482,0.0001824,53.2171,212.3995,54.495,305.6212,-4.3909e-05,-9.87e-06,0.0,0 STARLINK-3583,1 51876U 22022AA  22281.51159688 -.00000987  00000-0 -43909-4 0  9998,2 51876  53.2171 212.3995 0001824  54.4950 305.6212 15.08834482 34684,6917.897,95.438,541.024,538.5,0.0
51876.0,STARLINK-3583,PAYLOAD,2022-10-08 18:38:14,15.08832242,0.0001836,53.217,211.2103,54.067,306.0492,-5.1973e-05,-1.115e-05,0.0,0 STARLINK-3583,1 51876U 22022AA  22281.77655906 -.00001115  00000-0 -51973-4 0  9994,2 51876  53.2170 211.2103 0001836  54.0670 306.0492 15.08832242 34722,6917.904,95.438,541.039,538.499,0.0
51876.0,STARLINK-3583,PAYLOAD,2022-10-09 04:10:33,15.08834416,0.0001748,53.2173,209.427,54.7812,305.3343,7.3997e-05,8.900000000000001e-06,0.0,0 STARLINK-3583,1 51876U 22022AA  22282.17400177  .00000890  00000-0  73997-4 0  9994,2 51876  53.2173 209.4270 0001748  54.7812 305.3343 15.08834416 34784,6917.897,95.438,540.972,538.553,0.0
51876.0,STARLINK-3583,PAYLOAD,2022-10-09 12:07:29,15.08840921,0.0001739,53.2168,207.9394,45.8236,314.2899,0.00018055,2.587e-05,0.0,0 STARLINK-3583,1 51876U 22022AA  22282.50520057  .00002587  00000-0  18055-3 0  9999,2 51876  53.2168 207.9394 0001739  45.8236 314.2899 15.08840921 34838,6917.878000000002,95.437,540.946,538.54,0.0
51876.0,STARLINK-3583,PAYLOAD,2022-10-10 11:58:16,15.08843438,0.000182,53.2167,203.4791,49.4754,310.6397,0.00023929,3.523e-05,0.0,0 STARLINK-3583,1 51876U 22022AA  22283.49880201  .00003523  00000-0  23929-3 0  9995,2 51876  53.2167 203.4791 0001820  49.4754 310.6397 15.08843438 34980,6917.87,95.437,540.994,538.476,0.0
51876.0,STARLINK-3583,PAYLOAD,2022-10-10 18:19:49,15.08839879,0.0001879,53.2169,202.2908,50.4682,309.6476,8.1068e-05,1.002e-05,0.0,0 STARLINK-3583,1 51876U 22022AA  22283.76376310  .00001002  00000-0  81068-4 0  9995,2 51876  53.2169 202.2908 0001879  50.4682 309.6476 15.08839879 35021,6917.880999999999,95.438,541.0459999999998,538.446,0.0
51876.0,STARLINK-3583,PAYLOAD,2022-10-11 03:52:08,15.08827678,0.0001893,53.2168,200.5063,48.1542,311.9611,-0.00010695,-1.989e-05,0.0,0 STARLINK-3583,1 51876U 22022AA  22284.16120996 -.00001989  00000-0 -10695-3 0  9990,2 51876  53.2168 200.5063 0001893  48.1542 311.9611 15.08827678 35085,6917.918000000002,95.438,541.0930000000002,538.4730000000002,0.0
51876.0,STARLINK-3583,PAYLOAD,2022-10-11 18:10:37,15.08819971,0.0001906999999999,53.2167,197.8298,49.6928,310.423,-0.00015943,-2.823e-05,0.0,0 STARLINK-3583,1 51876U 22022AA  22284.75738036 -.00002823  00000-0 -15943-3 0  9994,2 51876  53.2167 197.8298 0001907  49.6928 310.4230 15.08819971 35170,6917.941999999999,95.439,541.126,538.487,0.0
51876.0,STARLINK-3583,PAYLOAD,2022-10-12 11:39:52,15.08832425,0.0001701,53.2171,194.5582,52.7571,307.3576,0.00013821,1.912e-05,0.0,0 STARLINK-3583,1 51876U 22022AA  22285.48602449  .00001912  00000-0  13821-3 0  9992,2 51876  53.2171 194.5582 0001701  52.7571 307.3576 15.08832425 35285,6917.904,95.438,540.945,538.592,0.0
51876.0,STARLINK-3583,PAYLOAD,2022-10-12 18:01:24,15.08838587,0.0001699999999999,53.2167,193.3688,46.5059,313.6075,0.00030176,4.518e-05,0.0,0 STARLINK-3583,1 51876U 22022AA  22285.75098336  .00004518  00000-0  30176-3 0  9993,2 51876  53.2167 193.3688 0001700  46.5059 313.6075 15.08838587 35329,6917.885,95.438,540.9259999999998,538.5740000000002,0.0
51876.0,STARLINK-3583,PAYLOAD,2022-10-13 01:58:20,15.08839272,0.0001651,53.2165,191.882,44.0668,316.0455,0.00039769,6.047e-05,0.0,0 STARLINK-3583,1 51876U 22022AA  22286.08218722  .00006047  00000-0  39769-3 0  9999,2 51876  53.2165 191.8820 0001651  44.0668 316.0455 15.08839272 35378,6917.8830000000025,95.438,540.89,538.605,0.0
51876.0,STARLINK-3583,PAYLOAD,2022-10-13 19:27:35,15.0884626,0.000156,53.2162,188.611,41.5005,318.6105,0.00037531,5.691e-05,0.0,0 STARLINK-3583,1 51876U 22022AA  22286.81082417  .00005691  00000-0  37531-3 0  9999,2 51876  53.2162 188.6110 0001560  41.5005 318.6105 15.08846260 35484,6917.861,95.437,540.805,538.6469999999998,0.0
51876.0,STARLINK-3583,PAYLOAD,2022-10-14 01:49:07,15.08840837,0.0001529,53.2164,187.4214,44.2415,315.8699,0.00026878,3.992e-05,0.0,0 STARLINK-3583,1 51876U 22022AA  22287.07578551  .00003992  00000-0  26878-3 0  9991,2 51876  53.2164 187.4214 0001529  44.2415 315.8699 15.08840837 35524,6917.878000000002,95.438,540.8009999999998,538.685,0.0
51876.0,STARLINK-3583,PAYLOAD,2022-10-14 20:53:44,15.08850053,0.0001681,53.2163,183.8536,46.7288,313.3844,7.532800000000001e-05,9.11e-06,0.0,0 STARLINK-3583,1 51876U 22022AA  22287.87065665  .00000911  00000-0  75328-4 0  9999,2 51876  53.2163 183.8536 0001681  46.7288 313.3844 15.08850053 35643,6917.85,95.437,540.878,538.552,0.0
51876.0,STARLINK-3583,PAYLOAD,2022-10-15 00:04:31,15.08848068,0.0001684,53.2162,183.2588,44.2199,315.8928,6.1367e-05,6.89e-06,0.0,0 STARLINK-3583,1 51876U 22022AA  22288.00313670  .00000689  00000-0  61367-4 0  9997,2 51876  53.2162 183.2588 0001684  44.2199 315.8928 15.08848068 35665,6917.856,95.437,540.886,538.556,0.0
51876.0,STARLINK-3583,PAYLOAD,2022-10-15 19:09:07,15.08857282,0.0001634,53.2161,179.6905,51.4944,308.6195,0.00017576,2.512e-05,0.0,0 STARLINK-3583,1 51876U 22022AA  22288.79800488  .00002512  00000-0  17576-3 0  9990,2 51876  53.2161 179.6905 0001634  51.4944 308.6195 15.08857282 35786,6917.828,95.436,540.823,538.562,0.0
51876.0,STARLINK-3583,PAYLOAD,2022-10-16 01:30:40,15.088490599999998,0.0001704,53.2171,178.5007,63.2205,296.8962,4.6037e-05,4.45e-06,0.0,0 STARLINK-3583,1 51876U 22022AA  22289.06296679  .00000445  00000-0  46037-4 0  9990,2 51876  53.2171 178.5007 0001704  63.2205 296.8962 15.08849060 35827,6917.853,95.437,540.896,538.539,0.0
51876.0,STARLINK-3583,PAYLOAD,2022-10-16 18:59:56,15.08823555,0.0001811999999999,53.2177,175.2319,51.363,308.7524,-4.9135e-05,-1.07e-05,0.0,0 STARLINK-3583,1 51876U 22022AA  22289.79162993 -.00001070  00000-0 -49135-4 0  9990,2 51876  53.2177 175.2319 0001812  51.3630 308.7524 15.08823555 35933,6917.931,95.439,541.049,538.5419999999998,0.0
51876.0,STARLINK-3583,PAYLOAD,2022-10-16 23:46:06,15.08827073,0.0001802,53.2178,174.3397,53.8181,306.2978,-3.4818000000000004e-05,-8.42e-06,0.0,0 STARLINK-3583,1 51876U 22022AA  22289.99034847 -.00000842  00000-0 -34818-4 0  9996,2 51876  53.2178 174.3397 0001802  53.8181 306.2978 15.08827073 35965,6917.92,95.438,541.0319999999998,538.538,0.0
51876.0,STARLINK-3583,PAYLOAD,2022-10-17 18:50:42,15.08843171,0.0001798,53.2172,170.77,49.9555,310.1595,-1.7782e-05,-5.71e-06,0.0,0 STARLINK-3583,1 51876U 22022AA  22290.78521763 -.00000571  00000-0 -17782-4 0  9993,2 51876  53.2172 170.7700 0001798  49.9555 310.1595 15.08843171 36082,6917.871,95.437,540.98,538.492,0.0
51876.0,STARLINK-3583,PAYLOAD,2022-10-18 12:19:57,15.08829837,0.000195,53.2174,167.4998,48.9444,311.1716,0.00017929,2.566e-05,0.0,0 STARLINK-3583,1 51876U 22022AA  22291.51386561  .00002566  00000-0  17929-3 0  9996,2 51876  53.2174 167.4998 0001950  48.9444 311.1716 15.08829837 36193,6917.911,95.438,541.125,538.427,0.0
51876.0,STARLINK-3583,PAYLOAD,2022-10-18 21:52:17,15.08829155,0.0001947,53.2164,165.7156,48.5459,311.57,0.00010309,1.352e-05,0.0,0 STARLINK-3583,1 51876U 22022AA  22291.91130863  .00001352  00000-0  10309-3 0  9999,2 51876  53.2164 165.7156 0001947  48.5459 311.5700 15.08829155 36254,6917.9140000000025,95.438,541.125,538.432,0.0
51876.0,STARLINK-3583,PAYLOAD,2022-10-19 01:03:03,15.08833291,0.0001875,53.2162,165.1206,48.7618,311.3536,0.00016259,2.3e-05,0.0,0 STARLINK-3583,1 51876U 22022AA  22292.04378957  .00002300  00000-0  16259-3 0  9996,2 51876  53.2162 165.1206 0001875  48.7618 311.3536 15.08833291 36274,6917.901,95.438,541.063,538.469,0.0
